{
  "norad_id": 44475,
  "name": "EDRS-C",
  "history": [
    {
      "epoch": "2026-03-28T22:18:27.692352Z",
      "apogee_km": 35791.7680675069,
      "perigee_km": 35780.7294313177,
      "latitude_deg": 0.022726784896210016,
      "longitude_deg": 142.49639073367715,
      "height_km": 35782.194959156586,
      "semi_major_axis_km": 42164.3857494123,
      "eccentricity": 0.0001309,
      "inclination_deg": 0.0193,
      "raan_deg": 146.0606,
      "arg_perigee_deg": 207.6458,
      "mean_anomaly_deg": 309.7364,
      "mean_motion_rev_day": 1.0027302
    },
    {
      "epoch": "2026-03-29T20:26:38.703840Z",
      "apogee_km": 35791.7395208673,
      "perigee_km": 35780.877959644604,
      "latitude_deg": 0.03537178543658987,
      "longitude_deg": 142.49630668669752,
      "height_km": 35785.197851622404,
      "semi_major_axis_km": 42164.44574025596,
      "eccentricity": 0.0001288,
      "inclination_deg": 0.0218,
      "raan_deg": 141.1779,
      "arg_perigee_deg": 218.9499,
      "mean_anomaly_deg": 276.274,
      "mean_motion_rev_day": 1.00272806
    },
    {
      "epoch": "2026-03-30T11:39:38.473344Z",
      "apogee_km": 35791.85564865622,
      "perigee_km": 35780.8431281013,
      "latitude_deg": -0.008081888360735104,
      "longitude_deg": 142.5208695780992,
      "height_km": 35790.23956610349,
      "semi_major_axis_km": 42164.48638837877,
      "eccentricity": 0.00013059,
      "inclination_deg": 0.0235,
      "raan_deg": 137.6012,
      "arg_perigee_deg": 225.0665,
      "mean_anomaly_deg": 142.61,
      "mean_motion_rev_day": 1.00272661
    },
    {
      "epoch": "2026-03-30T22:13:37.115328Z",
      "apogee_km": 35791.85712191823,
      "perigee_km": 35780.897721329755,
      "latitude_deg": 0.021803188684136356,
      "longitude_deg": 142.49954363745394,
      "height_km": 35783.057060137966,
      "semi_major_axis_km": 42164.51442162399,
      "eccentricity": 0.00012996,
      "inclination_deg": 0.0248,
      "raan_deg": 135.6791,
      "arg_perigee_deg": 227.891,
      "mean_anomaly_deg": 300.6376,
      "mean_motion_rev_day": 1.00272561
    },
    {
      "epoch": "2026-03-31T20:33:38.566368Z",
      "apogee_km": 35791.95198942024,
      "perigee_km": 35780.91330508658,
      "latitude_deg": 0.033500982439158375,
      "longitude_deg": 142.49744819799707,
      "height_km": 35785.662952398714,
      "semi_major_axis_km": 42164.56964725341,
      "eccentricity": 0.0001309,
      "inclination_deg": 0.0277,
      "raan_deg": 131.42,
      "arg_perigee_deg": 236.0947,
      "mean_anomaly_deg": 272.619,
      "mean_motion_rev_day": 1.00272364
    },
    {
      "epoch": "2026-04-01T19:29:38.749920Z",
      "apogee_km": 35792.0662420461,
      "perigee_km": 35780.91791411786,
      "latitude_deg": 0.037084703221611344,
      "longitude_deg": 142.49683077319628,
      "height_km": 35787.5652928993,
      "semi_major_axis_km": 42164.62907808198,
      "eccentricity": 0.0001322,
      "inclination_deg": 0.0307,
      "raan_deg": 127.038,
      "arg_perigee_deg": 244.532,
      "mean_anomaly_deg": 253.5082,
      "mean_motion_rev_day": 1.00272152
    },
    {
      "epoch": "2026-04-02T20:19:38.652096Z",
      "apogee_km": 35792.217008779655,
      "perigee_km": 35780.90843631407,
      "latitude_deg": 0.031363257842989004,
      "longitude_deg": 142.49426768585556,
      "height_km": 35786.794029461395,
      "semi_major_axis_km": 42164.699722546866,
      "eccentricity": 0.0001341,
      "inclination_deg": 0.0338,
      "raan_deg": 122.3229,
      "arg_perigee_deg": 253.8576,
      "mean_anomaly_deg": 262.4184,
      "mean_motion_rev_day": 1.002719
    },
    {
      "epoch": "2026-04-02T20:23:31.837920Z",
      "apogee_km": 35792.217008779655,
      "perigee_km": 35780.90843631407,
      "latitude_deg": 0.030993214084905414,
      "longitude_deg": 142.49426072196525,
      "height_km": 35786.69936595203,
      "semi_major_axis_km": 42164.699722546866,
      "eccentricity": 0.0001341,
      "inclination_deg": 0.0338,
      "raan_deg": 122.3057,
      "arg_perigee_deg": 253.8872,
      "mean_anomaly_deg": 263.3803,
      "mean_motion_rev_day": 1.002719
    },
    {
      "epoch": "2026-04-03T20:17:38.633856Z",
      "apogee_km": 35792.38154700935,
      "perigee_km": 35780.88743030153,
      "latitude_deg": 0.029600077741566783,
      "longitude_deg": 142.4919849610909,
      "height_km": 35787.235269729346,
      "semi_major_axis_km": 42164.77148865544,
      "eccentricity": 0.0001363,
      "inclination_deg": 0.0367,
      "raan_deg": 118.0187,
      "arg_perigee_deg": 262.2499,
      "mean_anomaly_deg": 258.8149,
      "mean_motion_rev_day": 1.00271644
    },
    {
      "epoch": "2026-04-04T06:00:38.398752Z",
      "apogee_km": 35792.43657002114,
      "perigee_km": 35780.88847472796,
      "latitude_deg": -0.03599758145888761,
      "longitude_deg": 142.51664644123454,
      "height_km": 35781.9416603625,
      "semi_major_axis_km": 42164.79952237455,
      "eccentricity": 0.00013694,
      "inclination_deg": 0.0379,
      "raan_deg": 116.4441,
      "arg_perigee_deg": 265.4645,
      "mean_anomaly_deg": 43.3223,
      "mean_motion_rev_day": 1.00271544
    },
    {
      "epoch": "2026-04-05T13:27:38.734272Z",
      "apogee_km": 35792.648251543425,
      "perigee_km": 35780.88424353736,
      "latitude_deg": 0.018139840706190492,
      "longitude_deg": 142.50969949024307,
      "height_km": 35791.44583163945,
      "semi_major_axis_km": 42164.903247540395,
      "eccentricity": 0.0001395,
      "inclination_deg": 0.0415,
      "raan_deg": 110.8602,
      "arg_perigee_deg": 276.0403,
      "mean_anomaly_deg": 151.3719,
      "mean_motion_rev_day": 1.00271174
    }
  ]
}